{
  "type": "FeatureCollection",
  "features": [
    {
      "type": "Feature",
      "properties": {
        "norad_id": 66645,
        "name": "SHENZHOU-22",
        "group": "last-30-days",
        "lat": 27.305164947798357,
        "lon": 135.6599536855444,
        "alt_km": 383.28173927489206,
        "timestamp": "2025-12-16T21:38:55.917960+00:00",
        "meta_object_name": "SHENZHOU-22",
        "meta_object_id": "2025-272A",
        "meta_epoch": "2025-12-16T07:14:05.691264",
        "meta_mean_motion": 15.59326293,
        "meta_eccentricity": 0.00078559,
        "meta_inclination": 41.4684,
        "meta_ra_of_asc_node": 355.0821,
        "meta_arg_of_pericenter": 60.8888,
        "meta_mean_anomaly": 299.2736,
        "meta_ephemeris_type": 0,
        "meta_classification_type": "U",
        "meta_norad_cat_id": 66645,
        "meta_element_set_no": 999,
        "meta_rev_at_epoch": 26357,
        "meta_bstar": 0.00021422181,
        "meta_mean_motion_dot": 0.00017088,
        "meta_mean_motion_ddot": 0,
        "tle_line1": "1 66645U 25272A   25350.30145476  .00017088  00000+0  21422-3 0  9997",
        "tle_line2": "2 66645  41.4684 355.0821 0007855  60.8888 299.2736 15.59326293263579"
      },
      "geometry": {
        "type": "Point",
        "coordinates": [
          135.6599536855444,
          27.305164947798357
        ]
      }
    },
    {
      "type": "Feature",
      "properties": {
        "norad_id": 66647,
        "name": "COSMOS 2597 (RODNIK-S 22)",
        "group": "last-30-days",
        "lat": -10.319897157117847,
        "lon": -77.51005392297668,
        "alt_km": 1500.4740438534764,
        "timestamp": "2025-12-16T21:38:55.917972+00:00",
        "meta_object_name": "COSMOS 2597 (RODNIK-S 22)",
        "meta_object_id": "2025-273A",
        "meta_epoch": "2025-12-16T08:10:15.865824",
        "meta_mean_motion": 12.41952054,
        "meta_eccentricity": 0.00076868,
        "meta_inclination": 82.499,
        "meta_ra_of_asc_node": 284.2131,
        "meta_arg_of_pericenter": 278.311,
        "meta_mean_anomaly": 81.7097,
        "meta_ephemeris_type": 0,
        "meta_classification_type": "U",
        "meta_norad_cat_id": 66647,
        "meta_element_set_no": 999,
        "meta_rev_at_epoch": 258,
        "meta_bstar": -8.160386e-06,
        "meta_mean_motion_dot": 9e-08,
        "meta_mean_motion_ddot": 0,
        "tle_line1": "1 66647U 25273A   25350.34046141  .00000009  00000+0 -81604-5 0  9999",
        "tle_line2": "2 66647  82.4990 284.2131 0007686 278.3110  81.7097 12.41952054  2583"
      },
      "geometry": {
        "type": "Point",
        "coordinates": [
          -77.51005392297668,
          -10.319897157117847
        ]
      }
    },
    {
      "type": "Feature",
      "properties": {
        "norad_id": 66648,
        "name": "COSMOS 2598 (RODNIK-S 23)",
        "group": "last-30-days",
        "lat": 43.95645043954027,
        "lon": -68.8453641630995,
        "alt_km": 1495.4072568617848,
        "timestamp": "2025-12-16T21:38:55.917983+00:00",
        "meta_object_name": "COSMOS 2598 (RODNIK-S 23)",
        "meta_object_id": "2025-273B",
        "meta_epoch": "2025-12-16T07:53:26.070144",
        "meta_mean_motion": 12.43233424,
        "meta_eccentricity": 0.00080353,
        "meta_inclination": 82.5025,
        "meta_ra_of_asc_node": 284.2168,
        "meta_arg_of_pericenter": 228.3822,
        "meta_mean_anomaly": 131.657,
        "meta_ephemeris_type": 0,
        "meta_classification_type": "U",
        "meta_norad_cat_id": 66648,
        "meta_element_set_no": 999,
        "meta_rev_at_epoch": 258,
        "meta_bstar": -6.5006315e-05,
        "meta_mean_motion_dot": 1e-08,
        "meta_mean_motion_ddot": 0,
        "tle_line1": "1 66648U 25273B   25350.32877396  .00000001  00000+0 -65006-4 0  9991",
        "tle_line2": "2 66648  82.5025 284.2168 0008035 228.3822 131.6570 12.43233424  2584"
      },
      "geometry": {
        "type": "Point",
        "coordinates": [
          -68.8453641630995,
          43.95645043954027
        ]
      }
    },
    {
      "type": "Feature",
      "properties": {
        "norad_id": 66649,
        "name": "COSMOS 2599 (RODNIK-S 24)",
        "group": "last-30-days",
        "lat": -40.62416383095226,
        "lon": -82.59601995162195,
        "alt_km": 1504.9498358676947,
        "timestamp": "2025-12-16T21:38:55.917995+00:00",
        "meta_object_name": "COSMOS 2599 (RODNIK-S 24)",
        "meta_object_id": "2025-273C",
        "meta_epoch": "2025-12-16T06:23:32.816256",
        "meta_mean_motion": 12.41150989,
        "meta_eccentricity": 0.00062975,
        "meta_inclination": 82.5046,
        "meta_ra_of_asc_node": 284.2817,
        "meta_arg_of_pericenter": 270.0094,
        "meta_mean_anomaly": 90.0263,
        "meta_ephemeris_type": 0,
        "meta_classification_type": "U",
        "meta_norad_cat_id": 66649,
        "meta_element_set_no": 999,
        "meta_rev_at_epoch": 257,
        "meta_bstar": -4.7500187e-05,
        "meta_mean_motion_dot": 3e-08,
        "meta_mean_motion_ddot": 0,
        "tle_line1": "1 66649U 25273C   25350.26635204  .00000003  00000+0 -47500-4 0  9996",
        "tle_line2": "2 66649  82.5046 284.2817 0006297 270.0094  90.0263 12.41150989  2570"
      },
      "geometry": {
        "type": "Point",
        "coordinates": [
          -82.59601995162195,
          -40.62416383095226
        ]
      }
    },
    {
      "type": "Feature",
      "properties": {
        "norad_id": 66650,
        "name": "BEE-1000",
        "group": "last-30-days",
        "lat": -49.67505170540652,
        "lon": -72.76714892647378,
        "alt_km": 597.5429047740408,
        "timestamp": "2025-12-16T21:38:55.918006+00:00",
        "meta_object_name": "BEE-1000",
        "meta_object_id": "2025-274A",
        "meta_epoch": "2025-12-16T07:23:05.044128",
        "meta_mean_motion": 14.91676067,
        "meta_eccentricity": 0.00105133,
        "meta_inclination": 97.7394,
        "meta_ra_of_asc_node": 277.4297,
        "meta_arg_of_pericenter": 238.1589,
        "meta_mean_anomaly": 121.8606,
        "meta_ephemeris_type": 0,
        "meta_classification_type": "U",
        "meta_norad_cat_id": 66650,
        "meta_element_set_no": 999,
        "meta_rev_at_epoch": 293,
        "meta_bstar": 0.00010484962,
        "meta_mean_motion_dot": 9.99e-06,
        "meta_mean_motion_ddot": 0,
        "tle_line1": "1 66650U 25274A   25350.30769727  .00000999  00000+0  10485-3 0  9996",
        "tle_line2": "2 66650  97.7394 277.4297 0010513 238.1589 121.8606 14.91676067  2933"
      },
      "geometry": {
        "type": "Point",
        "coordinates": [
          -72.76714892647378,
          -49.67505170540652
        ]
      }
    },
    {
      "type": "Feature",
      "properties": {
        "norad_id": 66651,
        "name": "2025-274B",
        "group": "last-30-days",
        "lat": -42.657560786470846,
        "lon": -74.78684228756072,
        "alt_km": 597.8269995634964,
        "timestamp": "2025-12-16T21:38:55.918015+00:00",
        "meta_object_name": "2025-274B",
        "meta_object_id": "2025-274B",
        "meta_epoch": "2025-12-16T07:21:14.994720",
        "meta_mean_motion": 14.91827137,
        "meta_eccentricity": 0.00107558,
        "meta_inclination": 97.7391,
        "meta_ra_of_asc_node": 277.4301,
        "meta_arg_of_pericenter": 237.0542,
        "meta_mean_anomaly": 122.9643,
        "meta_ephemeris_type": 0,
        "meta_classification_type": "U",
        "meta_norad_cat_id": 66651,
        "meta_element_set_no": 999,
        "meta_rev_at_epoch": 293,
        "meta_bstar": 0.00023007378,
        "meta_mean_motion_dot": 2.268e-05,
        "meta_mean_motion_ddot": 0,
        "tle_line1": "1 66651U 25274B   25350.30642355  .00002268  00000+0  23007-3 0  9999",
        "tle_line2": "2 66651  97.7391 277.4301 0010755 237.0542 122.9643 14.91827137  2931"
      },
      "geometry": {
        "type": "Point",
        "coordinates": [
          -74.78684228756072,
          -42.657560786470846
        ]
      }
    },
    {
      "type": "Feature",
      "properties": {
        "norad_id": 66652,
        "name": "2025-274C",
        "group": "last-30-days",
        "lat": -33.633708843662674,
        "lon": -76.78907894161152,
        "alt_km": 597.3883128488042,
        "timestamp": "2025-12-16T21:38:55.918025+00:00",
        "meta_object_name": "2025-274C",
        "meta_object_id": "2025-274C",
        "meta_epoch": "2025-12-16T07:18:50.584896",
        "meta_mean_motion": 14.91924286,
        "meta_eccentricity": 0.00103504,
        "meta_inclination": 97.7396,
        "meta_ra_of_asc_node": 277.4335,
        "meta_arg_of_pericenter": 244.0889,
        "meta_mean_anomaly": 115.9263,
        "meta_ephemeris_type": 0,
        "meta_classification_type": "U",
        "meta_norad_cat_id": 66652,
        "meta_element_set_no": 999,
        "meta_rev_at_epoch": 293,
        "meta_bstar": 0.00019884078,
        "meta_mean_motion_dot": 1.957e-05,
        "meta_mean_motion_ddot": 0,
        "tle_line1": "1 66652U 25274C   25350.30475214  .00001957  00000+0  19884-3 0  9990",
        "tle_line2": "2 66652  97.7396 277.4335 0010350 244.0889 115.9263 14.91924286  2930"
      },
      "geometry": {
        "type": "Point",
        "coordinates": [
          -76.78907894161152,
          -33.633708843662674
        ]
      }
    }
  ]
}